NORAD_CAT_ID,OBJECT_NAME,OBJECT_TYPE,EPOCH,MEAN_MOTION,ECCENTRICITY,INCLINATION,RA_OF_ASC_NODE,ARG_OF_PERICENTER,MEAN_ANOMALY,BSTAR,MEAN_MOTION_DOT,MEAN_MOTION_DDOT,TLE_LINE0,TLE_LINE1,TLE_LINE2,SEMIMAJOR_AXIS,PERIOD,APOGEE,PERIGEE,DECAYED
55782.0,STARLINK-5826,PAYLOAD,2024-04-19 11:20:43,14.98322434,0.0002871,70.0008,142.4054,243.5468,116.5397,0.00032835,3.826e-05,0.0,0 STARLINK-5826,1 55782U 23028AT  24110.47272827  .00003826  00000-0  32835-3 0  9992,2 55782  70.0008 142.4054 0002871 243.5468 116.5397 14.98322434 63780,6950.216,96.107,574.077,570.086,0.0
55782.0,STARLINK-5826,PAYLOAD,2024-04-20 04:58:10,14.9835905,0.0002669,70.0003,140.5542,247.5608,112.5268,-0.00019526,-2.424e-05,0.0,0 STARLINK-5826,1 55782U 23028AT  24111.20707103 -.00002424  00000-0 -19526-3 0  9991,2 55782  70.0003 140.5542 0002669 247.5608 112.5268 14.98359050 63890,6950.103,96.105,573.823,570.113,0.0
55782.0,STARLINK-5826,PAYLOAD,2024-04-20 11:22:43,14.98333114,0.0003168,69.9984,139.8771,271.2331,88.8465,0.00012679,1.42e-05,0.0,0 STARLINK-5826,1 55782U 23028AT  24111.47411929  .00001420  00000-0  12679-3 0  9993,2 55782  69.9984 139.8771 0003168 271.2331  88.8465 14.98333114 63934,6950.183,96.107,574.25,569.846,0.0
55782.0,STARLINK-5826,PAYLOAD,2024-04-21 05:00:14,14.98313409,0.0002892,69.9992,138.0272,262.3511,97.7319,-4.3936e-05,-6.17e-06,0.0,0 STARLINK-5826,1 55782U 23028AT  24112.20850031 -.00000617  00000-0 -43936-4 0  9996,2 55782  69.9992 138.0272 0002892 262.3511  97.7319 14.98313409 64049,6950.244,96.108,574.119,570.099,0.0
55782.0,STARLINK-5826,PAYLOAD,2024-04-21 11:24:47,14.98307025,0.0002727,69.9991,137.3523,257.9238,102.1616,-0.00015148,-1.899e-05,0.0,0 STARLINK-5826,1 55782U 23028AT  24112.47554964 -.00001899  00000-0 -15148-3 0  9997,2 55782  69.9991 137.3523 0002727 257.9238 102.1616 14.98307025 64084,6950.264,96.108,574.024,570.234,0.0
55782.0,STARLINK-5826,PAYLOAD,2024-04-22 01:49:59,14.98316812,0.0003401,69.9982,135.8381,271.0238,89.0531,-6.4151e-05,-8.58e-06,0.0,0 STARLINK-5826,1 55782U 23028AT  24113.07638456 -.00000858  00000-0 -64151-4 0  9996,2 55782  69.9982 135.8381 0003401 271.0238  89.0531 14.98316812 64179,6950.234,96.108,574.462,569.735,0.0
55782.0,STARLINK-5826,PAYLOAD,2024-04-22 09:49:29,14.99176436,0.0006102,70.0,134.9953,254.2016,105.8471,0.0092518,0.00114633,0.0,0 STARLINK-5826,1 55782U 23028AT  24113.40937129  .00114633  00000-0  92518-2 0  9993,2 55782  70.0000 134.9953 0006102 254.2016 105.8471 14.99176436 64229,6947.577,96.053,573.681,565.202,0.0
55782.0,STARLINK-5826,PAYLOAD,2024-04-22 22:00:01,14.98313242,0.0003491,69.9994,133.7179,267.0073,304.3731,0.0061008,0.00073439,0.0,0 STARLINK-5826,1 55782U 23028AT  24113.91668981  .00073439  00000-0  61008-2 0  9994,2 55782  69.9994 133.7179 0003491 267.0073 304.3731 14.98313242 64297,6950.245,96.108,574.536,569.683,0.0
55782.0,STARLINK-5826,PAYLOAD,2024-04-23 11:28:47,14.9832958,0.0003274,69.9987,132.3017,269.6585,90.4199,0.00031455,3.662e-05,0.0,0 STARLINK-5826,1 55782U 23028AT  24114.47832946  .00003662  00000-0  31455-3 0  9995,2 55782  69.9987 132.3017 0003274 269.6585  90.4199 14.98329580 64383,6950.194,96.107,574.335,569.784,0.0
55782.0,STARLINK-5826,PAYLOAD,2024-04-24 03:30:07,14.98373467,0.0003331,70.0011,130.6235,269.7059,90.3718,-0.00048392,-5.869e-05,0.0,0 STARLINK-5826,1 55782U 23028AT  24115.14591539 -.00005869  00000-0 -48392-3 0  9991,2 55782  70.0011 130.6235 0003331 269.7059  90.3718 14.98373467 64488,6950.058,96.104,574.239,569.608,0.0
55782.0,STARLINK-5826,PAYLOAD,2024-04-24 11:30:47,14.98348467,0.0003103,69.999,129.7763,270.4084,89.6719,-3.4736e-06,-1.35e-06,0.0,0 STARLINK-5826,1 55782U 23028AT  24115.47971494 -.00000135  00000-0 -34736-5 0  9999,2 55782  69.9990 129.7763 0003103 270.4084  89.6719 14.98348467 64530,6950.136,96.106,574.157,569.844,0.0
55782.0,STARLINK-5826,PAYLOAD,2024-04-25 05:08:17,14.98336454,0.000333,69.9983,127.9251,269.3853,90.6924,-6.4207e-05,-8.59e-06,0.0,0 STARLINK-5826,1 55782U 23028AT  24116.21409261 -.00000859  00000-0 -64207-4 0  9998,2 55782  69.9983 127.9251 0003330 269.3853  90.6924 14.98336454 64642,6950.173,96.107,574.352,569.724,0.0
55782.0,STARLINK-5826,PAYLOAD,2024-04-25 11:32:49,14.98334374,0.0003127,69.9989,127.2528,265.3208,94.7594,-9.465e-05,-1.222e-05,0.0,0 STARLINK-5826,1 55782U 23028AT  24116.48113345 -.00001222  00000-0 -94650-4 0  9992,2 55782  69.9989 127.2528 0003127 265.3208  94.7594 14.98334374 64683,6950.179,96.107,574.218,569.871,0.0
55782.0,STARLINK-5826,PAYLOAD,2024-04-26 09:58:41,14.98341769,0.0003309,69.9983,124.8958,266.8965,93.1815,-1.468e-05,-2.68e-06,0.0,0 STARLINK-5826,1 55782U 23028AT  24117.41576170 -.00000268  00000-0 -14680-4 0  9999,2 55782  69.9983 124.8958 0003309 266.8965  93.1815 14.98341769 64826,6950.156,96.106,574.321,569.722,0.0
55782.0,STARLINK-5826,PAYLOAD,2024-04-27 03:36:10,14.9832833,0.0003141,69.9986,123.0442,268.0343,92.0457,5.8455e-05,6.04e-06,0.0,0 STARLINK-5826,1 55782U 23028AT  24118.15012710  .00000604  00000-0  58455-4 0  9996,2 55782  69.9986 123.0442 0003141 268.0343  92.0457 14.98328330 64937,6950.198,96.107,574.246,569.88,0.0
55782.0,STARLINK-5826,PAYLOAD,2024-04-27 10:00:43,14.98330032,0.0003146,69.9986,122.3711,269.2232,90.8567,7.1941e-05,7.65e-06,0.0,0 STARLINK-5826,1 55782U 23028AT  24118.41716588  .00000765  00000-0  71941-4 0  9992,2 55782  69.9986 122.3711 0003146 269.2232  90.8567 14.98330032 64977,6950.193,96.107,574.244,569.871,0.0
55782.0,STARLINK-5826,PAYLOAD,2024-04-27 22:49:47,14.98328643,0.0003165,69.9983,121.0236,269.6219,90.4577,-4.9143e-06,-1.52e-06,0.0,0 STARLINK-5826,1 55782U 23028AT  24118.95124821 -.00000152  00000-0 -49143-5 0  9996,2 55782  69.9983 121.0236 0003165 269.6219  90.4577 14.98328643 65054,6950.197,96.107,574.262,569.862,0.0
55782.0,STARLINK-5826,PAYLOAD,2024-04-28 03:38:12,14.9833043,0.0003175,69.9982,120.5187,269.7419,90.3376,-4.2633e-05,-6.02e-06,0.0,0 STARLINK-5826,1 55782U 23028AT  24119.15152804 -.00000602  00000-0 -42633-4 0  9997,2 55782  69.9982 120.5187 0003175 269.7419  90.3376 14.98330430 65082,6950.192,96.107,574.263,569.85,0.0
55782.0,STARLINK-5826,PAYLOAD,2024-04-28 10:02:44,14.98332187,0.0003172,69.9982,119.8454,269.9599,90.1196,-2.1517e-05,-3.5e-06,0.0,0 STARLINK-5826,1 55782U 23028AT  24119.41856603 -.00000350  00000-0 -21517-4 0  9992,2 55782  69.9982 119.8454 0003172 269.9599  90.1196 14.98332187 65122,6950.186,96.107,574.256,569.847,0.0
55782.0,STARLINK-5826,PAYLOAD,2024-04-28 22:51:48,14.98329184,0.0003146,69.9981,118.4987,270.2944,89.7854,3.208e-05,2.9e-06,0.0,0 STARLINK-5826,1 55782U 23028AT  24119.95264605  .00000290  00000-0  32080-4 0  9994,2 55782  69.9981 118.4987 0003146 270.2944  89.7854 14.98329184 65204,6950.195,96.107,574.247,569.874,0.0
55782.0,STARLINK-5826,PAYLOAD,2024-04-29 03:40:12,14.98329482,0.0003152,69.9981,117.9937,270.2527,89.8271,3.3942e-05,3.12e-06,0.0,0 STARLINK-5826,1 55782U 23028AT  24120.15292574  .00000312  00000-0  33942-4 0  9997,2 55782  69.9981 117.9937 0003152 270.2527  89.8271 14.98329482 65235,6950.194,96.107,574.25,569.869,0.0
55782.0,STARLINK-5826,PAYLOAD,2024-04-29 10:04:44,14.98331493,0.0003159,69.9982,117.3204,270.2874,89.7923,3.6019e-05,3.37e-06,0.0,0 STARLINK-5826,1 55782U 23028AT  24120.41996433  .00000337  00000-0  36019-4 0  9996,2 55782  69.9982 117.3204 0003159 270.2874  89.7923 14.98331493 65271,6950.188,96.107,574.249,569.858,0.0
55782.0,STARLINK-5826,PAYLOAD,2024-04-29 22:53:49,14.98329242,0.0003143,69.9982,115.9738,270.3424,89.7375,5.1989e-05,5.27e-06,0.0,0 STARLINK-5826,1 55782U 23028AT  24120.95404519  .00000527  00000-0  51989-4 0  9998,2 55782  69.9982 115.9738 0003143 270.3424  89.7375 14.98329242 65351,6950.195,96.107,574.245,569.876,0.0
55782.0,STARLINK-5826,PAYLOAD,2024-04-30 03:42:13,14.98329943,0.0003153,69.9981,115.4687,270.1982,89.8816,5.6407e-05,5.8e-06,0.0,0 STARLINK-5826,1 55782U 23028AT  24121.15432454  .00000580  00000-0  56407-4 0  9999,2 55782  69.9981 115.4687 0003153 270.1982  89.8816 14.98329943 65388,6950.193,96.107,574.249,569.867,0.0
55782.0,STARLINK-5826,PAYLOAD,2024-04-30 08:30:37,14.9833067,0.0003028,69.9983,114.9639,269.053,91.0282,6.578e-05,6.92e-06,0.0,0 STARLINK-5826,1 55782U 23028AT  24121.35460375  .00000692  00000-0  65780-4 0  9992,2 55782  69.9983 114.9639 0003028 269.0530  91.0282 14.98330670 65413,6950.191,96.107,574.16,569.951,0.0
55782.0,STARLINK-5826,PAYLOAD,2024-04-30 22:55:50,14.98334474,0.0003291,69.9986,113.4486,268.5377,91.5405,-2.8669e-05,-4.35e-06,0.0,0 STARLINK-5826,1 55782U 23028AT  24121.95544376 -.00000435  00000-0 -28669-4 0  9994,2 55782  69.9986 113.4486 0003291 268.5377  91.5405 14.98334474 65503,6950.179,96.107,574.331,569.757,0.0
55782.0,STARLINK-5826,PAYLOAD,2024-05-01 05:20:22,14.98332166,0.0003326,69.9983,112.7757,268.6875,91.3903,-1.0195e-05,-2.15e-06,0.0,0 STARLINK-5826,1 55782U 23028AT  24122.22248396 -.00000215  00000-0 -10195-4 0  9999,2 55782  69.9983 112.7757 0003326 268.6875  91.3903 14.98332166 65547,6950.186,96.107,574.363,569.74,0.0
55782.0,STARLINK-5826,PAYLOAD,2024-05-01 16:33:18,14.98333645,0.0003125,69.9984,111.5967,270.3199,89.7602,-3.4304e-05,-5.02e-06,0.0,0 STARLINK-5826,1 55782U 23028AT  24122.68980300 -.00000502  00000-0 -34304-4 0  9994,2 55782  69.9984 111.5967 0003125 270.3199  89.7602 14.98333645 65612,6950.182,96.107,574.219,569.875,0.0
55782.0,STARLINK-5826,PAYLOAD,2024-05-02 05:22:23,14.98331676,0.0003212,69.9983,110.2506,267.9398,92.1393,1.0787e-05,3.6e-07,0.0,0 STARLINK-5826,1 55782U 23028AT  24123.22388251  .00000036  00000-0  10787-4 0  9991,2 55782  69.9983 110.2506 0003212 267.9398  92.1393 14.98331676 65691,6950.188,96.107,574.285,569.82,0.0
55782.0,STARLINK-5826,PAYLOAD,2024-05-02 08:34:39,14.98331813,0.0003044,69.9983,109.9139,268.7657,91.3153,1.2309e-05,5.4e-07,0.0,0 STARLINK-5826,1 55782U 23028AT  24123.35740243  .00000054  00000-0  12309-4 0  9990,2 55782  69.9983 109.9139 0003044 268.7657  91.3153 14.98331813 65719,6950.187,96.107,574.168,569.937,0.0
